ONEWEB-0056             
1 45159U 20008AE  25290.93400827 -.00000242  00000+0 -73090-3 0  9996
2 45159  87.8761  84.5577 0001692  88.4143 271.7178 13.10379039276458
ONEWEB-0057             
1 45160U 20008AF  25290.94147597  .00000090  00000+0  22223-3 0  9992
2 45160  87.8758  84.5692 0001478  86.8729 273.2568 13.10375311276626
ONEWEB-0058             
1 45161U 20008AG  25290.92833435 -.00000305  00000+0 -91027-3 0  9993
2 45161  87.8757  84.5824 0001700 103.2114 256.9203 13.10375424276699
ONEWEB-0059             
1 45162U 20008AH  25290.92482206 -.00002974  00000+0 -85566-2 0  9994
2 45162  87.8762  84.5850 0001778  96.5153 263.6177 13.10382541276599
ONEWEB-0062             
1 45163U 20008AJ  25290.95059159  .00000329  00000+0  90523-3 0  9995
2 45163  87.8755  84.5551 0001786  99.3561 260.7769 13.10383059276469
ONEWEB-0065             
1 45164U 20008AK  25290.93065643 -.00000407  00000+0 -12030-2 0  9994
2 45164  87.8758  84.5855 0001605  78.9207 281.2100 13.10373565276154
ONEWEB-0066             
1 45424U 20020A   25290.90444718  .00000352  00000+0  95786-3 0  9995
2 45424  87.8830  69.3116 0001327  98.7616 261.3662 13.11419756270925
ONEWEB-0067             
1 45425U 20020B   25290.94190100 -.00000253  00000+0 -74962-3 0  9998
2 45425  87.8827  69.2075 0001467  93.9583 266.1713 13.11418723270989
